NOAA 1                  
1 04793U 70106A   24226.44076588 -.00000026  00000+0  10971-3 0  9994
2 04793 101.4420 276.6155 0031285 224.2181 146.5015 12.54030915456364
NOAA 2 (ITOS-D)         
1 06235U 72082A   24226.50494403 -.00000002  00000+0  28149-3 0  9999
2 06235 102.0180 226.1412 0004228  17.8898 151.0197 12.53184011370689
NOAA 3                  
1 06920U 73086A   24226.48806635 -.00000021  00000+0  18528-3 0  9997
2 06920 102.2792 222.9801 0006132 282.2633 232.6665 12.40369782298498
NOAA 4                  
1 07529U 74089A   24226.47857800 -.00000016  00000+0  19210-3 0  9999
2 07529 101.9908 221.2727 0009346  40.9820 113.9768 12.53182564275254
NOAA 5                  
1 09057U 76077A   24226.43135058 -.00000020  00000+0  19945-3 0  9996
2 09057 102.2119 199.7667 0009851 128.1556 351.0438 12.37803663171232
TIROS N                 
1 11060U 78096A   24226.82278940  .00000836  00000+0  42127-3 0  9999
2 11060  98.5288 265.0550 0011065  35.1675 325.0229 14.18879707583622
NOAA 6                  
1 11416U 79057A   24226.79364906  .00001499  00000+0  54574-3 0  9991
2 11416  98.6278 247.9458 0011304  90.6820 269.5660 14.34625848354728
NOAA 7                  
1 12553U 81059A   24226.57709853  .00000362  00000+0  20046-3 0  9994
2 12553  98.8895 285.9435 0012008  35.5672 324.6301 14.17557112229444
NOAA 8                  
1 13923U 83022A   24226.82796714  .00000876  00000+0  36147-3 0  9997
2 13923  98.7325 226.9012 0016017  66.6355 293.6510 14.29306568155261
NOAA 9                  
1 15427U 84123A   24226.80559420  .00000729  00000+0  38822-3 0  9999
2 15427  99.1207 225.6621 0015806  93.2771 322.0939 14.16646163 48448
NOAA 10                 
1 16969U 86073A   24226.43663859  .00000649  00000+0  27566-3 0  9992
2 16969  98.6449 211.8434 0012456 159.2856 317.4768 14.28675832973326
NOAA 11                 
1 19531U 88089A   24226.39988235  .00000349  00000+0  19962-3 0  9990
2 19531  98.5225 186.4553 0012258  72.1176 288.1334 14.15566482852282
NOAA 12                 
1 21263U 91032A   24226.58844053  .00000601  00000+0  26764-3 0  9996
2 21263  98.5616 216.4196 0013454 189.0799 171.0140 14.26358053729065
NOAA 13                 
1 22739U 93050A   24226.84651398  .00000655  00000+0  37182-3 0  9999
2 22739  98.6099 182.1723 0008347 246.6780 113.3515 14.13262196598630
NOAA 14                 
1 23455U 94089A   24226.53224864  .00000381  00000+0  22001-3 0  9998
2 23455  98.4357 219.3672 0008763 211.4988 148.5663 14.14423256528105
NOAA 15                 
1 25338U 98030A   24226.81767957  .00000858  00000+0  37251-3 0  9998
2 25338  98.5668 252.7364 0010936 150.7568 209.4227 14.26661284365656
NOAA 16                 
1 26536U 00055A   24226.55746773  .00000482  00000+0  27720-3 0  9996
2 26536  98.5281 263.5231 0011584  73.8721 286.3727 14.13617986528686
NOAA 17                 
1 27453U 02032A   24226.90097160  .00000862  00000+0  38223-3 0  9992
2 27453  98.7660 177.4717 0012433 136.8275 223.3881 14.25645920151189
NOAA 18                 
1 28654U 05018A   24226.83768868  .00000776  00000+0  43707-3 0  9992
2 28654  98.8721 303.3201 0013179 258.5779 101.3913 14.13282938991400
NOAA 19                 
1 33591U 09005A   24226.86817504  .00000725  00000+0  41235-3 0  9991
2 33591  99.0431 283.2671 0014723 127.6513 232.5997 14.13076645799773
SUOMI NPP               
1 37849U 11061A   24226.84032493  .00000488  00000+0  25225-3 0  9997
2 37849  98.7226 163.9568 0002030  90.5642 269.5766 14.19547651663049
NOAA 20 (JPSS-1)        
1 43013U 17073A   24226.85719704  .00000474  00000+0  24534-3 0  9991
2 43013  98.7068 163.8148 0002346  72.3326 287.8106 14.19560207349081
NOAA 21 (JPSS-2)        
1 54234U 22150A   24226.54066917  .00000550  00000+0  28148-3 0  9997
2 54234  98.7522 163.7653 0001245  48.3611 311.7671 14.19547684 91116
ISS (ZARYA)             
1 25544U 98067A   24226.87152105  .00035209  00000+0  62010-3 0  9995
2 25544  51.6416  29.5568 0005325 198.8394 311.7475 15.50082527467490
CSS (TIANHE)            
1 48274U 21035A   24226.84347426  .00058127  00000+0  68373-3 0  9992
2 48274  41.4681  91.7025 0002112 246.8998 113.1618 15.60530429188112
ISS (NAUKA)             
1 49044U 21066A   24226.54164249  .00038517  00000+0  67780-3 0  9991
2 49044  51.6414  31.1923 0005342 195.1375 273.4305 15.50063513173259
FREGAT DEB              
1 49271U 11037PF  24226.60730958  .00018424  00000+0  38502-1 0  9996
2 49271  51.6574 182.4392 0970286 251.1197  98.2114 12.20229970142208
CSS (WENTIAN)           
1 53239U 22085A   24226.65803686  .00078159  00000+0  91613-3 0  9999
2 53239  41.4696  92.8223 0001513 233.8240 163.1338 15.60519456116951
CSS (MENGTIAN)          
1 54216U 22143A   24226.65803686  .00078159  00000+0  91613-3 0  9990
2 54216  41.4696  92.8223 0001513 233.8240 163.1338 15.60519456101838
TIANZHOU-7              
1 58811U 24013A   24226.65803686  .00078159  00000+0  91613-3 0  9993
2 58811  41.4696  92.8223 0001513 233.8240 163.1338 15.60519456187523
PROGRESS-MS 26          
1 58961U 24029A   24226.54164249  .00038517  00000+0  67780-3 0  9991
2 58961  51.6414  31.1923 0005342 195.1375 273.4305 15.50063513 27705
CREW DRAGON 8           
1 59097U 24042A   24226.54164249  .00038517  00000+0  67780-3 0  9997
2 59097  51.6414  31.1923 0005342 195.1375 273.4305 15.50063513 24905
SOYUZ-MS 25             
1 59294U 24055A   24226.54164249  .00038517  00000+0  67780-3 0  9990
2 59294  51.6414  31.1923 0005342 195.1375 273.4305 15.50063513 21901
MICROORBITER-1          
1 59483U 98067WF  24225.44158433  .01000184  47978-3  21935-2 0  9990
2 59483  51.6243  21.7113 0010532 284.1468  75.8370 15.97496980 19357
CURTIS                  
1 59507U 98067WG  24226.80344924  .00275202  00000+0  15257-2 0  9995
2 59507  51.6264  18.8567 0007166 255.3925 104.6282 15.78174358 19527
1998-067WJ              
1 59559U 98067WJ  24226.84383628  .00289810  00000+0  17302-2 0  9993
2 59559  51.6308  19.9137 0003755 265.7435  94.3136 15.76486128 18384
1998-067WL              
1 59561U 98067WL  24226.73713801  .00089763  00000+0  10076-2 0  9990
2 59561  51.6337  25.2241 0002471 187.7957 172.2999 15.61879630 18270
BURSTCUBE               
1 59562U 98067WM  24226.71085203  .00256713  00000+0  15307-2 0  9990
2 59562  51.6312  20.5312 0005445 257.4213 102.6179 15.76601564 18345
SNOOPI                  
1 59563U 98067WN  24226.70790414  .00230306  00000+0  16633-2 0  9990
2 59563  51.6337  22.0285 0004761 252.7345 107.3132 15.72250325 18312
SHENZHOU-18 (SZ-18)     
1 59591U 24078A   24226.65803686  .00078159  00000+0  91613-3 0  9990
2 59591  41.4696  92.8223 0001513 233.8240 163.1338 15.60519456 17026
1998-067WP              
1 59596U 98067WP  24226.79303414  .00636168  00000+0  20720-2 0  9993
2 59596  51.6277  17.2830 0007639 286.6698  73.3468 15.88542367 18420
1998-067WQ              
1 59597U 98067WQ  24225.77616410  .00836116  00000+0  28168-2 0  9993
2 59597  51.6323  22.5297 0006965 281.1459  78.8762 15.87401178 18234
SZ-17 MODULE            
1 59624U 23164C   24226.80387612  .00074056  00000+0  57113-3 0  9994
2 59624  41.4756  88.7233 0010250 293.6725  66.3041 15.70903245 16584
PROGRESS-MS 27          
1 59913U 24103A   24226.54164249  .00038517  00000+0  67780-3 0  9992
2 59913  51.6414  31.1923 0005342 195.1375 273.4305 15.50063513 11346
STARLINER CFT-1         
1 59968U 24109A   24226.54164249  .00038517  00000+0  67780-3 0  9998
2 59968  51.6414  31.1923 0005342 195.1375 273.4305 15.50063513 10402
CYGNUS NG-21            
1 60378U 24139A   24226.54164249  .00038517  00000+0  67780-3 0  9998
2 60378  51.6414  31.1923 0005342 195.1375 273.4305 15.50063513  1106
